{
    "links": {
        "self": "http://www.neowsapp.com/rest/v1/neo/3685633?api_key=iIulBulltgU6a56xZRHN4H3l9WmuAYTsLGpBGhQ2"
    },
    "id": "3685633",
    "neo_reference_id": "3685633",
    "name": "(2014 QC391)",
    "designation": "2014 QC391",
    "nasa_jpl_url": "http://ssd.jpl.nasa.gov/sbdb.cgi?sstr=3685633",
    "absolute_magnitude_h": 27.4,
    "estimated_diameter": {
        "kilometers": {
            "estimated_diameter_min": 0.0088014652,
            "estimated_diameter_max": 0.0196806745
        },
        "meters": {
            "estimated_diameter_min": 8.801465209,
            "estimated_diameter_max": 19.6806745089
        },
        "miles": {
            "estimated_diameter_min": 0.0054689752,
            "estimated_diameter_max": 0.0122290004
        },
        "feet": {
            "estimated_diameter_min": 28.8761991163,
            "estimated_diameter_max": 64.5691441559
        }
    },
    "is_potentially_hazardous_asteroid": false,
    "close_approach_data": [
        {
            "close_approach_date": "2014-09-04",
            "close_approach_date_full": "2014-Sep-04 14:20",
            "epoch_date_close_approach": 1409840400000,
            "relative_velocity": {
                "kilometers_per_second": "8.3377227963",
                "kilometers_per_hour": "30015.8020667437",
                "miles_per_hour": "18650.652123083"
            },
            "miss_distance": {
                "astronomical": "0.0076141619",
                "lunar": "2.9619089791",
                "kilometers": "1139062.402075153",
                "miles": "707780.5564289914"
            },
            "orbiting_body": "Moon"
        },
        {
            "close_approach_date": "2014-09-04",
            "close_approach_date_full": "2014-Sep-04 21:11",
            "epoch_date_close_approach": 1409865060000,
            "relative_velocity": {
                "kilometers_per_second": "7.8265367405",
                "kilometers_per_hour": "28175.5322659253",
                "miles_per_hour": "17507.1800349023"
            },
            "miss_distance": {
                "astronomical": "0.0062657143",
                "lunar": "2.4373628627",
                "kilometers": "937337.513308541",
                "miles": "582434.5229222258"
            },
            "orbiting_body": "Earth"
        },
        {
            "close_approach_date": "2016-08-09",
            "close_approach_date_full": "2016-Aug-09 04:56",
            "epoch_date_close_approach": 1470718560000,
            "relative_velocity": {
                "kilometers_per_second": "16.2332123497",
                "kilometers_per_hour": "58439.5644589301",
                "miles_per_hour": "36312.0727050502"
            },
            "miss_distance": {
                "astronomical": "0.2862362559",
                "lunar": "111.3459035451",
                "kilometers": "42820334.199414933",
                "miles": "26607321.8736067554"
            },
            "orbiting_body": "Earth"
        },
        {
            "close_approach_date": "2057-08-15",
            "close_approach_date_full": "2057-Aug-15 04:31",
            "epoch_date_close_approach": 2765075460000,
            "relative_velocity": {
                "kilometers_per_second": "13.7550809016",
                "kilometers_per_hour": "49518.291245755",
                "miles_per_hour": "30768.7404687859"
            },
            "miss_distance": {
                "astronomical": "0.2019739444",
                "lunar": "78.5678643716",
                "kilometers": "30214871.877738428",
                "miles": "18774650.7927011864"
            },
            "orbiting_body": "Earth"
        }
    ],
    "orbital_data": {
        "orbit_id": "5",
        "orbit_determination_date": "2017-04-06 08:38:56",
        "first_observation_date": "2014-08-29",
        "last_observation_date": "2014-09-04",
        "data_arc_in_days": 6,
        "observations_used": 18,
        "orbit_uncertainty": "8",
        "minimum_orbit_intersection": ".00123526",
        "jupiter_tisserand_invariant": "4.301",
        "epoch_osculation": "2456902.5",
        "eccentricity": ".4021972909690303",
        "semi_major_axis": "1.580321403175195",
        "inclination": "2.08683736668194",
        "ascending_node_longitude": "345.3191370515677",
        "orbital_period": "725.6322226989464",
        "perihelion_distance": ".9447204159577548",
        "perihelion_argument": "36.67599604770371",
        "aphelion_distance": "2.215922390392635",
        "perihelion_time": "2456938.060378074909",
        "mean_anomaly": "342.3578174914119",
        "mean_motion": ".4961190927561088",
        "equinox": "J2000",
        "orbit_class": {
            "orbit_class_type": "APO",
            "orbit_class_description": "Near-Earth asteroid orbits which cross the Earth’s orbit similar to that of 1862 Apollo",
            "orbit_class_range": "a (semi-major axis) > 1.0 AU; q (perihelion) < 1.017 AU"
        }
    },
    "is_sentry_object": false
}